TIANMU-1 08             
1 57400U 23101B   26066.00237819  .00000346  00000+0  14775-4 0  9993
2 57400  97.2717 118.7901 0006380 134.2174 225.9592 15.29204229146020
STARLINK-30549          
1 58030U 23156C   26068.29945700  .00000096  00000+0  15365-4 0  9999
2 58030  53.1601  80.1921 0001423  83.2302 276.8861 15.30189988136205
